[{"OBJECT_NAME":"STARLINK-3243","OBJECT_ID":"2022-005N","EPOCH":"2026-03-09T21:23:33.734688","MEAN_MOTION":15.08835681,"ECCENTRICITY":0.00015346,"INCLINATION":53.2188,"RA_OF_ASC_NODE":288.1884,"ARG_OF_PERICENTER":110.6784,"MEAN_ANOMALY":249.4373,"EPHEMERIS_TYPE":0,"CLASSIFICATION_TYPE":"U","NORAD_CAT_ID":51116,"ELEMENT_SET_NO":999,"REV_AT_EPOCH":22890,"BSTAR":-2.835398e-5,"MEAN_MOTION_DOT":-7.39e-6,"MEAN_MOTION_DDOT":0},{"OBJECT_NAME":"ONEWEB-0618","OBJECT_ID":"2023-004V","EPOCH":"2026-03-09T21:27:12.326688","MEAN_MOTION":15.11974897,"ECCENTRICITY":0.00107842,"INCLINATION":86.9069,"RA_OF_ASC_NODE":217.8931,"ARG_OF_PERICENTER":307.7231,"MEAN_ANOMALY":52.303,"EPHEMERIS_TYPE":0,"CLASSIFICATION_TYPE":"U","NORAD_CAT_ID":55159,"ELEMENT_SET_NO":999,"REV_AT_EPOCH":16725,"BSTAR":0.00049587895,"MEAN_MOTION_DOT":8.547e-5,"MEAN_MOTION_DDOT":0}]
